CCSDS_OMM_VERS = 2.0
CREATION_DATE  = 
ORIGINATOR     = 

OBJECT_NAME    = KUIPER-00275
OBJECT_ID      = 2026-030AF
CENTER_NAME    = EARTH
REF_FRAME      = TEME
TIME_SYSTEM    = UTC
MEAN_ELEMENT_THEORY = SGP/SGP4

EPOCH          = 2026-03-07T22:52:58.227744
MEAN_MOTION    = 15.34669567
ECCENTRICITY   = .0009334
INCLINATION    = 51.8846
RA_OF_ASC_NODE = 227.6873
ARG_OF_PERICENTER = 48.2193
MEAN_ANOMALY   = 311.9588

EPHEMERIS_TYPE = 0
CLASSIFICATION_TYPE = U
NORAD_CAT_ID   = 67793
ELEMENT_SET_NO = 999
REV_AT_EPOCH   = 482
BSTAR          = .10254E-2
MEAN_MOTION_DOT = .348E-3
MEAN_MOTION_DDOT = 0

CCSDS_OMM_VERS = 2.0
CREATION_DATE  = 
ORIGINATOR     = 

OBJECT_NAME    = KUIPER-00276
OBJECT_ID      = 2026-030AG
CENTER_NAME    = EARTH
REF_FRAME      = TEME
TIME_SYSTEM    = UTC
MEAN_ELEMENT_THEORY = SGP/SGP4

EPOCH          = 2026-03-07T22:00:01.999584
MEAN_MOTION    = 15.30343618
ECCENTRICITY   = .00188515
INCLINATION    = 51.8816
RA_OF_ASC_NODE = 228.2941
ARG_OF_PERICENTER = 62.3741
MEAN_ANOMALY   = 240.3598

EPHEMERIS_TYPE = 0
CLASSIFICATION_TYPE = U
NORAD_CAT_ID   = 67794
ELEMENT_SET_NO = 999
REV_AT_EPOCH   = 451
BSTAR          = .26027661E-2
MEAN_MOTION_DOT = .78354E-3
MEAN_MOTION_DDOT = 0

CCSDS_OMM_VERS = 2.0
CREATION_DATE  = 
ORIGINATOR     = 

OBJECT_NAME    = KUIPER-00279
OBJECT_ID      = 2026-030AH
CENTER_NAME    = EARTH
REF_FRAME      = TEME
TIME_SYSTEM    = UTC
MEAN_ELEMENT_THEORY = SGP/SGP4

EPOCH          = 2026-03-08T00:15:19.931040
MEAN_MOTION    = 15.35353032
ECCENTRICITY   = .0006432
INCLINATION    = 51.8799
RA_OF_ASC_NODE = 227.3113
ARG_OF_PERICENTER = 43.3691
MEAN_ANOMALY   = 316.7800

EPHEMERIS_TYPE = 0
CLASSIFICATION_TYPE = U
NORAD_CAT_ID   = 67795
ELEMENT_SET_NO = 999
REV_AT_EPOCH   = 483
BSTAR          = .15202E-2
MEAN_MOTION_DOT = .53018E-3
MEAN_MOTION_DDOT = 0

CCSDS_OMM_VERS = 2.0
CREATION_DATE  = 
ORIGINATOR     = 

OBJECT_NAME    = CREW DRAGON 12
OBJECT_ID      = 2026-031A
CENTER_NAME    = EARTH
REF_FRAME      = TEME
TIME_SYSTEM    = UTC
MEAN_ELEMENT_THEORY = SGP/SGP4

EPOCH          = 2026-03-07T18:30:03.892896
MEAN_MOTION    = 15.48514260
ECCENTRICITY   = .00081173
INCLINATION    = 51.6320
RA_OF_ASC_NODE = 81.8427
ARG_OF_PERICENTER = 167.9196
MEAN_ANOMALY   = 192.1989

EPHEMERIS_TYPE = 0
CLASSIFICATION_TYPE = U
NORAD_CAT_ID   = 67796
ELEMENT_SET_NO = 999
REV_AT_EPOCH   = 55592
BSTAR          = .26707368E-3
MEAN_MOTION_DOT = .14056E-3
MEAN_MOTION_DDOT = 0

CCSDS_OMM_VERS = 2.0
CREATION_DATE  = 
ORIGINATOR     = 

OBJECT_NAME    = STARLINK-36800
OBJECT_ID      = 2026-032A
CENTER_NAME    = EARTH
REF_FRAME      = TEME
TIME_SYSTEM    = UTC
MEAN_ELEMENT_THEORY = SGP/SGP4

EPOCH          = 2026-03-07T23:28:43.372992
MEAN_MOTION    = 15.75281467
ECCENTRICITY   = .00022708
INCLINATION    = 97.2839
RA_OF_ASC_NODE = 253.3758
ARG_OF_PERICENTER = 54.8694
MEAN_ANOMALY   = 305.2783

EPHEMERIS_TYPE = 0
CLASSIFICATION_TYPE = U
NORAD_CAT_ID   = 67797
ELEMENT_SET_NO = 999
REV_AT_EPOCH   = 451
BSTAR          = .18927228E-2
MEAN_MOTION_DOT = .293257E-2
MEAN_MOTION_DDOT = 0

CCSDS_OMM_VERS = 2.0
CREATION_DATE  = 
ORIGINATOR     = 

OBJECT_NAME    = STARLINK-36798
OBJECT_ID      = 2026-032B
CENTER_NAME    = EARTH
REF_FRAME      = TEME
TIME_SYSTEM    = UTC
MEAN_ELEMENT_THEORY = SGP/SGP4

EPOCH          = 2026-03-07T22:00:01.999584
MEAN_MOTION    = 15.75066584
ECCENTRICITY   = .00014801
INCLINATION    = 97.2848
RA_OF_ASC_NODE = 253.3516
ARG_OF_PERICENTER = 91.1973
MEAN_ANOMALY   = 11.9545

EPHEMERIS_TYPE = 0
CLASSIFICATION_TYPE = U
NORAD_CAT_ID   = 67798
ELEMENT_SET_NO = 999
REV_AT_EPOCH   = 443
BSTAR          = .14286077E-2
MEAN_MOTION_DOT = .217306E-2
MEAN_MOTION_DDOT = 0

CCSDS_OMM_VERS = 2.0
CREATION_DATE  = 
ORIGINATOR     = 

OBJECT_NAME    = STARLINK-36804
OBJECT_ID      = 2026-032C
CENTER_NAME    = EARTH
REF_FRAME      = TEME
TIME_SYSTEM    = UTC
MEAN_ELEMENT_THEORY = SGP/SGP4

EPOCH          = 2026-03-07T23:26:10.895136
MEAN_MOTION    = 15.75218001
ECCENTRICITY   = .00013232
INCLINATION    = 97.2837
RA_OF_ASC_NODE = 253.3782
ARG_OF_PERICENTER = 79.3613
MEAN_ANOMALY   = 280.7802

EPHEMERIS_TYPE = 0
CLASSIFICATION_TYPE = U
NORAD_CAT_ID   = 67799
ELEMENT_SET_NO = 999
REV_AT_EPOCH   = 451
BSTAR          = .10341722E-2
MEAN_MOTION_DOT = .157185E-2
MEAN_MOTION_DDOT = 0

CCSDS_OMM_VERS = 2.0
CREATION_DATE  = 
ORIGINATOR     = 

OBJECT_NAME    = STARLINK-36354
OBJECT_ID      = 2026-032D
CENTER_NAME    = EARTH
REF_FRAME      = TEME
TIME_SYSTEM    = UTC
MEAN_ELEMENT_THEORY = SGP/SGP4

EPOCH          = 2026-03-07T23:10:25.585824
MEAN_MOTION    = 15.75216312
ECCENTRICITY   = .00016789
INCLINATION    = 97.2845
RA_OF_ASC_NODE = 253.3951
ARG_OF_PERICENTER = 78.7432
MEAN_ANOMALY   = 281.4022

EPHEMERIS_TYPE = 0
CLASSIFICATION_TYPE = U
NORAD_CAT_ID   = 67800
ELEMENT_SET_NO = 999
REV_AT_EPOCH   = 451
BSTAR          = .74520081E-3
MEAN_MOTION_DOT = .112629E-2
MEAN_MOTION_DDOT = 0

CCSDS_OMM_VERS = 2.0
CREATION_DATE  = 
ORIGINATOR     = 

OBJECT_NAME    = STARLINK-36773
OBJECT_ID      = 2026-032E
CENTER_NAME    = EARTH
REF_FRAME      = TEME
TIME_SYSTEM    = UTC
MEAN_ELEMENT_THEORY = SGP/SGP4

EPOCH          = 2026-03-07T23:21:36.533664
MEAN_MOTION    = 15.75208432
ECCENTRICITY   = .00016987
INCLINATION    = 97.2841
RA_OF_ASC_NODE = 253.3825
ARG_OF_PERICENTER = 81.3267
MEAN_ANOMALY   = 278.8191

EPHEMERIS_TYPE = 0
CLASSIFICATION_TYPE = U
NORAD_CAT_ID   = 67801
ELEMENT_SET_NO = 999
REV_AT_EPOCH   = 451
BSTAR          = .73676299E-3
MEAN_MOTION_DOT = .111297E-2
MEAN_MOTION_DDOT = 0

CCSDS_OMM_VERS = 2.0
CREATION_DATE  = 
ORIGINATOR     = 

OBJECT_NAME    = STARLINK-36739
OBJECT_ID      = 2026-032F
CENTER_NAME    = EARTH
REF_FRAME      = TEME
TIME_SYSTEM    = UTC
MEAN_ELEMENT_THEORY = SGP/SGP4

EPOCH          = 2026-03-07T22:00:01.999584
MEAN_MOTION    = 15.75104096
ECCENTRICITY   = .00015046
INCLINATION    = 97.2852
RA_OF_ASC_NODE = 253.3667
ARG_OF_PERICENTER = 78.3944
MEAN_ANOMALY   = 64.7333

EPHEMERIS_TYPE = 0
CLASSIFICATION_TYPE = U
NORAD_CAT_ID   = 67802
ELEMENT_SET_NO = 999
REV_AT_EPOCH   = 449
BSTAR          = .80005811E-3
MEAN_MOTION_DOT = .120453E-2
MEAN_MOTION_DDOT = 0

CCSDS_OMM_VERS = 2.0
CREATION_DATE  = 
ORIGINATOR     = 

OBJECT_NAME    = STARLINK-36768
OBJECT_ID      = 2026-032G
CENTER_NAME    = EARTH
REF_FRAME      = TEME
TIME_SYSTEM    = UTC
MEAN_ELEMENT_THEORY = SGP/SGP4

EPOCH          = 2026-03-07T23:12:58.195872
MEAN_MOTION    = 15.75253702
ECCENTRICITY   = .00023289
INCLINATION    = 97.2840
RA_OF_ASC_NODE = 253.3900
ARG_OF_PERICENTER = 61.2227
MEAN_ANOMALY   = 298.9272

EPHEMERIS_TYPE = 0
CLASSIFICATION_TYPE = U
NORAD_CAT_ID   = 67803
ELEMENT_SET_NO = 999
REV_AT_EPOCH   = 451
BSTAR          = .15116116E-2
MEAN_MOTION_DOT = .232222E-2
MEAN_MOTION_DDOT = 0

CCSDS_OMM_VERS = 2.0
CREATION_DATE  = 
ORIGINATOR     = 

OBJECT_NAME    = STARLINK-36792
OBJECT_ID      = 2026-032H
CENTER_NAME    = EARTH
REF_FRAME      = TEME
TIME_SYSTEM    = UTC
MEAN_ELEMENT_THEORY = SGP/SGP4

EPOCH          = 2026-03-07T23:16:31.457856
MEAN_MOTION    = 15.75249150
ECCENTRICITY   = .00017305
INCLINATION    = 97.2839
RA_OF_ASC_NODE = 253.3865
ARG_OF_PERICENTER = 88.3147
MEAN_ANOMALY   = 271.8317

EPHEMERIS_TYPE = 0
CLASSIFICATION_TYPE = U
NORAD_CAT_ID   = 67804
ELEMENT_SET_NO = 999
REV_AT_EPOCH   = 451
BSTAR          = .13136617E-2
MEAN_MOTION_DOT = .201008E-2
MEAN_MOTION_DDOT = 0

