KUIPER-00275            
1 67793U 26030AF  26066.95345171  .00034800  00000+0  10254-2 0  9996
2 67793  51.8846 227.6873 0009334  48.2193 311.9588 15.34669567  4828
KUIPER-00276            
1 67794U 26030AG  26066.91668981  .00078354  00000+0  26028-2 0  9998
2 67794  51.8816 228.2941 0018851  62.3741 240.3598 15.30343618  4513
KUIPER-00279            
1 67795U 26030AH  26067.01064735  .00053018  00000+0  15202-2 0  9990
2 67795  51.8799 227.3113 0006432  43.3691 316.7800 15.35353032  4835
CREW DRAGON 12          
1 67796U 26031A   26066.77087839  .00014056  00000+0  26707-3 0  9996
2 67796  51.6320  81.8427 0008117 167.9196 192.1989 15.48514260555921
STARLINK-36800          
1 67797U 26032A   26066.97827978  .00293257  00000+0  18927-2 0  9992
2 67797  97.2839 253.3758 0002270  54.8694 305.2783 15.75281467  4510
STARLINK-36798          
1 67798U 26032B   26066.91668981  .00217306  00000+0  14286-2 0  9999
2 67798  97.2848 253.3516 0001480  91.1973  11.9545 15.75066584  4438
STARLINK-36804          
1 67799U 26032C   26066.97651499  .00157185  00000+0  10342-2 0  9999
2 67799  97.2837 253.3782 0001323  79.3613 280.7802 15.75218001  4511
STARLINK-36354          
1 67800U 26032D   26066.96557391  .00112629  00000+0  74520-3 0  9990
2 67800  97.2845 253.3951 0001678  78.7432 281.4022 15.75216312  4511
STARLINK-36773          
1 67801U 26032E   26066.97333951  .00111297  00000+0  73676-3 0  9997
2 67801  97.2841 253.3825 0001698  81.3267 278.8191 15.75208432  4517
STARLINK-36739          
1 67802U 26032F   26066.91668981  .00120453  00000+0  80006-3 0  9995
2 67802  97.2852 253.3667 0001504  78.3944  64.7333 15.75104096  4496
STARLINK-36768          
1 67803U 26032G   26066.96734023  .00232222  00000+0  15116-2 0  9999
2 67803  97.2840 253.3900 0002328  61.2227 298.9272 15.75253702  4519
STARLINK-36792          
1 67804U 26032H   26066.96980854  .00201008  00000+0  13137-2 0  9994
2 67804  97.2839 253.3865 0001730  88.3147 271.8317 15.75249150  4517
